 *******************************************************************************
Target body name: Mercury (199)                   {source: DE431mx}
Center body name: Sun (10)                        {source: DE431mx}
Center-site name: BODY CENTER
*******************************************************************************
Start time      : A.D. 2010-Jan-01 00:00:00.0000 TDB
Stop  time      : A.D. 2020-Jan-01 00:00:00.0000 TDB
Step-size       : 1440 minutes
*******************************************************************************
Center geodetic : 0.00000000,0.00000000,0.0000000 {E-lon(deg),Lat(deg),Alt(km)}
Center cylindric: 0.00000000,0.00000000,0.0000000 {E-lon(deg),Dxy(km),Dz(km)}
Center radii    : 696000.0 x 696000.0 x 696000.0 k{Equator, meridian, pole}   
Output units    : AU-D                                                         
Output type     : GEOMETRIC cartesian states
Output format   : 3 (position, velocity, LT, range, range-rate)
Reference frame : ICRF/J2000.0                                                 
Coordinate systm: Ecliptic and Mean Equinox of Reference Epoch                 
*******************************************************************************
            JDTDB,            Calendar Date (TDB),                      X,                      Y,                      Z,                     VX,                     VY,                     VZ,                     LT,                     RG,                     RR,
**************************************************************************************************************************************************************************************************************************************************************************
$$SOE
2456637.500000000, A.D. 2013-Dec-11 00:00:00.0000, -3.100474286913381E-01, -3.261630932001482E-01,  1.797030764382813E-03,  1.467148908676386E-02, -1.809557758196600E-02, -2.824637195868035E-03,  2.599079510646137E-03,  4.500166671619699E-01,  2.995835997622503E-03,
2456638.500000000, A.D. 2013-Dec-12 00:00:00.0000, -2.948838368317612E-01, -3.437230238810463E-01, -1.028990626026920E-03,  1.564447793708868E-02, -1.701829152269005E-02, -2.825886845664649E-03,  2.615634333137185E-03,  4.528830458211695E-01,  2.736209197182829E-03,
2456639.500000000, A.D. 2013-Dec-13 00:00:00.0000, -2.787807622844764E-01, -3.601882150963813E-01, -3.851761416018275E-03,  1.655059656777463E-02, -1.590661167489908E-02, -2.818190950967740E-03,  2.630677909339612E-03,  4.554877602968456E-01,  2.472604617125247E-03,
2456640.500000000, A.D. 2013-Dec-14 00:00:00.0000, -2.618046590746916E-01, -3.755257622434701E-01, -6.662495924130402E-03,  1.739066658440614E-02, -1.476346771790867E-02, -2.801864269984376E-03,  2.644188890545887E-03,  4.578271141748747E-01,  2.205575663667385E-03,
2456641.500000000, A.D. 2013-Dec-15 00:00:00.0000, -2.440211950898737E-01, -3.897055501637297E-01, -9.452708514775485E-03,  1.816543565761832E-02, -1.359151461839536E-02, -2.777192331522993E-03,  2.656148970272832E-03,  4.598979377859514E-01,  1.935623711001684E-03,
2456642.500000000, A.D. 2013-Dec-16 00:00:00.0000, -2.254953344563412E-01, -4.026999952937274E-01, -1.221418497220070E-02,  1.887556117185343E-02, -1.239316595539989E-02, -2.744432657652748E-03,  2.666542605496782E-03,  4.616975399389522E-01,  1.663205527674141E-03,
2456643.500000000, A.D. 2013-Dec-17 00:00:00.0000, -2.062914347850235E-01, -4.144838199725874E-01, -1.493895513760347E-02,  1.952159672837835E-02, -1.117062494768444E-02, -2.703816060507997E-03,  2.675356779044765E-03,  4.632236667802447E-01,  1.388740114910800E-03,
2456644.500000000, A.D. 2013-Dec-18 00:00:00.0000, -1.864733567419613E-01, -4.250338567321922E-01, -1.761926686525702E-02,  2.010398090211614E-02, -9.925913436322226E-03, -2.655547978808674E-03,  2.682580799968394E-03,  4.644744672294975E-01,  1.112615034214194E-03,
2456645.500000000, A.D. 2013-Dec-19 00:00:00.0000, -1.661045839448585E-01, -4.343288806617008E-01, -2.024756132508903E-02,  2.062302775839855E-02, -8.660899098033989E-03, -2.599809831293373E-03,  2.688206139174015E-03,  4.654484645199228E-01,  8.351923014175535E-04,
2456646.500000000, A.D. 2013-Dec-20 00:00:00.0000, -1.452483516343121E-01, -4.423494682209908E-01, -2.281644966124752E-02,  2.107891872649733E-02, -7.377321178804169E-03, -2.536760373733817E-03,  2.692226298025398E-03,  4.661445334475375E-01,  5.568139232105023E-04,
2456647.500000000, A.D. 2013-Dec-21 00:00:00.0000, -1.239677829316915E-01, -4.490778811718913E-01, -2.531869100689206E-02,  2.147169550441377E-02, -6.076815046139575E-03, -2.466537054042437E-03,  2.694636708069684E-03,  4.665618830092497E-01,  2.778071505105532E-04,
2456648.500000000, A.D. 2013-Dec-22 00:00:00.0000, -1.023260317868607E-01, -4.544979745976727E-01, -2.774717185337353E-02,  2.180125373643810E-02, -4.760935864539700E-03, -2.389257366642139E-03,  2.695434660461859E-03,  4.667000441830845E-01, -1.510478647038922E-06,
2456649.500000000, A.D. 2013-Dec-23 00:00:00.0000, -8.038643194742631E-02, -4.585951282885667E-01, -3.009488677610875E-02,  2.206733726381908E-02, -3.431181704242253E-03, -2.305020213113900E-03,  2.694619264078330E-03,  4.665588626757742E-01, -2.808262355125049E-04,
2456650.500000000, A.D. 2013-Dec-24 00:00:00.0000, -5.821265145400513E-02, -4.613562010841473E-01, -3.235492052918220E-02,  2.226953280176341E-02, -2.089016399503641E-03, -2.213907281495680E-03,  2.692191431717954E-03,  4.661384965335424E-01, -5.598273662097255E-04,
2456651.500000000, A.D. 2013-Dec-25 00:00:00.0000, -3.586885228801674E-02, -4.627695080834465E-01, -3.452043153565983E-02,  2.240726494507878E-02, -7.358924806027330E-04, -2.115984461758297E-03,  2.688153894191934E-03,  4.654394185816912E-01, -8.381962569668594E-04,
2456652.500000000, A.D. 2013-Dec-26 00:00:00.0000, -1.341985487242437E-02, -4.628248209628357E-01, -3.658463682071447E-02,  2.247979145219980E-02,  6.267254858564602E-04, -2.011303320184023E-03,  2.682511242505301E-03,  4.644624237281004E-01, -1.115605529443976E-03,
2456653.500000000, A.D. 2013-Dec-27 00:00:00.0000,  9.068692847709501E-03, -4.615133919826748E-01, -3.854079846009428E-02,  2.248619880524006E-02,  1.997336800453766E-03, -1.899902660856563E-03,  2.675269998735799E-03,  4.632086412355254E-01, -1.391712996041307E-03,
2456654.500000000, A.D. 2013-Dec-28 00:00:00.0000,  3.153014204061567E-02, -4.588280026195901E-01, -4.038221164761922E-02,  2.242539809432818E-02,  3.374379413921422E-03, -1.781810208460070E-03,  2.666438716623846E-03,  4.616795521382088E-01, -1.666156403986697E-03,
2456655.500000000, A.D. 2013-Dec-29 00:00:00.0000,  5.389666571051115E-02, -4.547630381351324E-01, -4.210219452287374E-02,  2.229612133021502E-02,  4.756203205643689E-03, -1.657044453297566E-03,  2.656028113302581E-03,  4.598770120502311E-01, -1.938547895513910E-03,
2456656.500000000, A.D. 2013-Dec-30 00:00:00.0000,  7.609907801391581E-02, -4.493145897864571E-01, -4.369407994491491E-02,  2.209691835263772E-02,  6.141041351413560E-03, -1.525616707090824E-03,  2.644051234021719E-03,  4.578032796865624E-01, -2.208468109741023E-03,
2456657.500000000, A.D. 2013-Dec-31 00:00:00.0000,  9.806665087949619E-02, -4.424805868030074E-01, -4.515120945067174E-02,  2.182615457617942E-02,  7.526979349800534E-03, -1.387533426927873E-03,  2.630523652153416E-03,  4.554610514930044E-01, -2.475459850221776E-03,
2456658.500000000, A.D. 2014-Jan-01 00:00:00.0000,  1.197269289259537E-01, -4.342609606963963E-01, -4.646692969904111E-02,  2.148200990378070E-02,  8.911921251356427E-03, -1.242798874889468E-03,  2.615463707211149E-03,  4.528535028578812E-01, -2.739021240976947E-03,
2456659.500000000, A.D. 2014-Jan-02 00:00:00.0000,  1.410055440541877E-01, -4.246578449386078E-01, -4.763459177493858E-02,  2.106247924454017E-02,  1.029355261100574E-02, -1.091418192606746E-03,  2.598892784059463E-03,  4.499843364557095E-01, -2.998598293693495E-03,
2456660.500000000, A.D. 2014-Jan-03 00:00:00.0000,  1.618260315890279E-01, -4.136758135336223E-01, -4.864755381338696E-02,  2.056537520145040E-02,  1.166929966432777E-02, -9.334009834434372E-04,  2.580835636935112E-03,  4.468578383497190E-01, -3.253576810504377E-03,
2456661.500000000, A.D. 2014-Jan-04 00:00:00.0000,  1.821096504872423E-01, -4.013221625133271E-01, -4.949918750389795E-02,  1.998833365129175E-02,  1.303628421739351E-02, -7.687655102640318E-04,  2.561320762324908E-03,  4.434789425536515E-01, -3.503273551430353E-03,
2456662.500000000, A.D. 2014-Jan-05 00:00:00.0000,  2.017752109426071E-01, -3.876072388985896E-01, -5.018288915176623E-02,  1.932882312863791E-02,  1.439127374356102E-02, -5.975436338515897E-04,  2.540380825131478E-03,  4.398533048200733E-01, -3.746926604667551E-03,
2456663.500000000, A.D. 2014-Jan-06 00:00:00.0000,  2.207389137416968E-01, -3.725448221617710E-01, -5.069209610721905E-02,  1.858415915479261E-02,  1.573062620780610E-02, -4.197866358167328E-04,  2.518053142873936E-03,  4.359873864771244E-01, -3.983684913445238E-03,
2456664.500000000, A.D. 2014-Jan-07 00:00:00.0000,  2.389142069978848E-01, -3.561525636786802E-01, -5.102030952714925E-02,  1.775152492652797E-02,  1.705022920165651E-02, -2.355720898773721E-04,  2.494380232871758E-03,  4.318885491704667E-01, -4.212596937815179E-03,
2456665.500000000, A.D. 2014-Jan-08 00:00:00.0000,  2.562116674638767E-01, -3.384524900230310E-01, -5.116112460829038E-02,  1.682800010425891E-02,  1.834543308569676E-02, -4.501196587942889E-05,  2.469410427384633E-03,  4.275651613714511E-01, -4.432598466947559E-03,
2456666.500000000, A.D. 2014-Jan-09 00:00:00.0000,  2.725389155478022E-01, -3.194715761732611E-01, -5.110826962500045E-02,  1.581059981875133E-02,  1.961097802334736E-02,  1.517378295135694E-04,  2.443198561443921E-03,  4.230267174714401E-01, -4.642499651788264E-03,
